{"type": "FeatureCollection", "features": [ {"type": "Feature", "properties": {"norad_id": 30242, "name": "FENGYUN 1C DEB", "group": "fengyun-1c-debris", "lat": -52.846371356905706, "lon": 25.452045766315994, "alt_km": 845.4623652275286, "timestamp": "2025-12-05T11:32:56.293486+00:00", "meta": {"OBJECT_NAME": "FENGYUN 1C DEB", "OBJECT_ID": "1999-025XB", "EPOCH": "2025-12-04T16:03:07.712064", "MEAN_MOTION": 14.17609776, "ECCENTRICITY": 0.0011404, "INCLINATION": 98.6842, "RA_OF_ASC_NODE": 13.0221, "ARG_OF_PERICENTER": 76.9124, "MEAN_ANOMALY": 46.0256, "EPHEMERIS_TYPE": 0, "CLASSIFICATION_TYPE": "U", "NORAD_CAT_ID": 30242, "ELEMENT_SET_NO": 999, "REV_AT_EPOCH": 97312, "BSTAR": 0.0010051, "MEAN_MOTION_DOT": 2.002e-05, "MEAN_MOTION_DDOT": 0}, "tle": {"line1": "1 30242U 99025XB  25338.66883926  .00002002  00000+0  10051-2 0  9997", "line2": "2 30242  98.6842  13.0221 0011404  76.9124  46.0256 14.17609776973121"}}, "geometry": {"type": "Point", "coordinates": [25.452045766315994, -52.846371356905706]}}, {"type": "Feature", "properties": {"norad_id": 30243, "name": "FENGYUN 1C DEB", "group": "fengyun-1c-debris", "lat": 28.988215157477107, "lon": 175.973125239267, "alt_km": 838.6202725066687, "timestamp": "2025-12-05T11:32:56.293497+00:00", "meta": {"OBJECT_NAME": "FENGYUN 1C DEB", "OBJECT_ID": "1999-025XC", "EPOCH": "2025-12-03T12:01:30.129024", "MEAN_MOTION": 14.1300075, "ECCENTRICITY": 0.00128279, "INCLINATION": 98.6936, "RA_OF_ASC_NODE": 349.1876, "ARG_OF_PERICENTER": 143.6915, "MEAN_ANOMALY": 19.7451, "EPHEMERIS_TYPE": 0, "CLASSIFICATION_TYPE": "U", "NORAD_CAT_ID": 30243, "ELEMENT_SET_NO": 999, "REV_AT_EPOCH": 97148, "BSTAR": 0.00052913098, "MEAN_MOTION_DOT": 9.45e-06, "MEAN_MOTION_DDOT": 0}, "tle": {"line1": "1 30243U 99025XC  25337.50104316  .00000945  00000+0  52913-3 0  9997", "line2": "2 30243  98.6936 349.1876 0012827 143.6915  19.7451 14.13000750971489"}}, "geometry": {"type": "Point", "coordinates": [175.973125239267, 28.988215157477107]}}, {"type": "Feature", "properties": {"norad_id": 30244, "name": "FENGYUN 1C DEB", "group": "fengyun-1c-debris", "lat": -65.27815735820317, "lon": -110.57067881207328, "alt_km": 844.203078211508, "timestamp": "2025-12-05T11:32:56.293507+00:00", "meta": {"OBJECT_NAME": "FENGYUN 1C DEB", "OBJECT_ID": "1999-025XD", "EPOCH": "2025-12-04T15:45:09.231840", "MEAN_MOTION": 14.14996685, "ECCENTRICITY": 0.0009926, "INCLINATION": 99.1435, "RA_OF_ASC_NODE": 228.109, "ARG_OF_PERICENTER": 337.8958, "MEAN_ANOMALY": 75.8422, "EPHEMERIS_TYPE": 0, "CLASSIFICATION_TYPE": "U", "NORAD_CAT_ID": 30244, "ELEMENT_SET_NO": 999, "REV_AT_EPOCH": 97232, "BSTAR": 0.00070143, "MEAN_MOTION_DOT": 1.312e-05, "MEAN_MOTION_DDOT": 0}, "tle": {"line1": "1 30244U 99025XD  25338.65635685  .00001312  00000+0  70143-3 0  9997", "line2": "2 30244  99.1435 228.1090 0009926 337.8958  75.8422 14.14996685972321"}}, "geometry": {"type": "Point", "coordinates": [-110.57067881207328, -65.27815735820317]}}, {"type": "Feature", "properties": {"norad_id": 30245, "name": "FENGYUN 1C DEB", "group": "fengyun-1c-debris", "lat": -65.59657564707484, "lon": -12.297220756664924, "alt_km": 842.6620558079421, "timestamp": "2025-12-05T11:32:56.293517+00:00", "meta": {"OBJECT_NAME": "FENGYUN 1C DEB", "OBJECT_ID": "1999-025XE", "EPOCH": "2025-12-04T09:44:53.931264", "MEAN_MOTION": 13.79034855, "ECCENTRICITY": 0.0193398, "INCLINATION": 98.8885, "RA_OF_ASC_NODE": 326.5171, "ARG_OF_PERICENTER": 273.4195, "MEAN_ANOMALY": 84.4855, "EPHEMERIS_TYPE": 0, "CLASSIFICATION_TYPE": "U", "NORAD_CAT_ID": 30245, "ELEMENT_SET_NO": 999, "REV_AT_EPOCH": 94579, "BSTAR": 0.0020277, "MEAN_MOTION_DOT": 2.34e-05, "MEAN_MOTION_DDOT": 0}, "tle": {"line1": "1 30245U 99025XE  25338.40617976  .00002340  00000+0  20277-2 0  9998", "line2": "2 30245  98.8885 326.5171 0193398 273.4195  84.4855 13.79034855945794"}}, "geometry": {"type": "Point", "coordinates": [-12.297220756664924, -65.59657564707484]}}, {"type": "Feature", "properties": {"norad_id": 30246, "name": "FENGYUN 1C DEB", "group": "fengyun-1c-debris", "lat": 42.41902641795826, "lon": 116.1969701608277, "alt_km": 1034.4685168696087, "timestamp": "2025-12-05T11:32:56.293527+00:00", "meta": {"OBJECT_NAME": "FENGYUN 1C DEB", "OBJECT_ID": "1999-025XF", "EPOCH": "2025-12-04T08:43:01.065792", "MEAN_MOTION": 13.37013456, "ECCENTRICITY": 0.0370727, "INCLINATION": 98.6727, "RA_OF_ASC_NODE": 123.2588, "ARG_OF_PERICENTER": 120.7203, "MEAN_ANOMALY": 308.0485, "EPHEMERIS_TYPE": 0, "CLASSIFICATION_TYPE": "U", "NORAD_CAT_ID": 30246, "ELEMENT_SET_NO": 999, "REV_AT_EPOCH": 92028, "BSTAR": 0.00053839, "MEAN_MOTION_DOT": 3.83e-06, "MEAN_MOTION_DDOT": 0}, "tle": {"line1": "1 30246U 99025XF  25338.36320678  .00000383  00000+0  53839-3 0  9990", "line2": "2 30246  98.6727 123.2588 0370727 120.7203 308.0485 13.37013456920288"}}, "geometry": {"type": "Point", "coordinates": [116.1969701608277, 42.41902641795826]}}, {"type": "Feature", "properties": {"norad_id": 30247, "name": "FENGYUN 1C DEB", "group": "fengyun-1c-debris", "lat": 7.986167919487671, "lon": 67.82302855812684, "alt_km": 826.683558386515, "timestamp": "2025-12-05T11:32:56.293538+00:00", "meta": {"OBJECT_NAME": "FENGYUN 1C DEB", "OBJECT_ID": "1999-025XG", "EPOCH": "2025-12-04T16:47:42.680256", "MEAN_MOTION": 14.58665213, "ECCENTRICITY": 0.0195975, "INCLINATION": 98.2767, "RA_OF_ASC_NODE": 245.874, "ARG_OF_PERICENTER": 16.8537, "MEAN_ANOMALY": 13.0926, "EPHEMERIS_TYPE": 0, "CLASSIFICATION_TYPE": "U", "NORAD_CAT_ID": 30247, "ELEMENT_SET_NO": 999, "REV_AT_EPOCH": 97165, "BSTAR": 0.0072531, "MEAN_MOTION_DOT": 0.00044348, "MEAN_MOTION_DDOT": 0}, "tle": {"line1": "1 30247U 99025XG  25338.69979954  .00044348  00000+0  72531-2 0  9992", "line2": "2 30247  98.2767 245.8740 0195975  16.8537  13.0926 14.58665213971653"}}, "geometry": {"type": "Point", "coordinates": [67.82302855812684, 7.986167919487671]}}, {"type": "Feature", "properties": {"norad_id": 30248, "name": "FENGYUN 1C DEB", "group": "fengyun-1c-debris", "lat": -24.03917380636504, "lon": -21.184865629874707, "alt_km": 684.7946254854987, "timestamp": "2025-12-05T11:32:56.293548+00:00", "meta": {"OBJECT_NAME": "FENGYUN 1C DEB", "OBJECT_ID": "1999-025XH", "EPOCH": "2025-12-03T10:52:24.057408", "MEAN_MOTION": 14.58599707, "ECCENTRICITY": 0.00293434, "INCLINATION": 99.1007, "RA_OF_ASC_NODE": 160.6958, "ARG_OF_PERICENTER": 180.7516, "MEAN_ANOMALY": 179.3641, "EPHEMERIS_TYPE": 0, "CLASSIFICATION_TYPE": "U", "NORAD_CAT_ID": 30248, "ELEMENT_SET_NO": 999, "REV_AT_EPOCH": 97293, "BSTAR": 0.0054769579, "MEAN_MOTION_DOT": 0.00025683, "MEAN_MOTION_DDOT": 0}, "tle": {"line1": "1 30248U 99025XH  25337.45305622  .00025683  00000+0  54770-2 0  9997", "line2": "2 30248  99.1007 160.6958 0029343 180.7516 179.3641 14.58599707972935"}}, "geometry": {"type": "Point", "coordinates": [-21.184865629874707, -24.03917380636504]}}, {"type": "Feature", "properties": {"norad_id": 30249, "name": "FENGYUN 1C DEB", "group": "fengyun-1c-debris", "lat": -48.89934513408247, "lon": 153.7675405213331, "alt_km": 716.4470637483764, "timestamp": "2025-12-05T11:32:56.293558+00:00", "meta": {"OBJECT_NAME": "FENGYUN 1C DEB", "OBJECT_ID": "1999-025XJ", "EPOCH": "2025-12-04T09:41:51.683424", "MEAN_MOTION": 14.5725543, "ECCENTRICITY": 0.0026366, "INCLINATION": 98.9591, "RA_OF_ASC_NODE": 142.1911, "ARG_OF_PERICENTER": 68.7357, "MEAN_ANOMALY": 354.2027, "EPHEMERIS_TYPE": 0, "CLASSIFICATION_TYPE": "U", "NORAD_CAT_ID": 30249, "ELEMENT_SET_NO": 999, "REV_AT_EPOCH": 97442, "BSTAR": 0.0096985, "MEAN_MOTION_DOT": 0.00044286, "MEAN_MOTION_DDOT": 0}, "tle": {"line1": "1 30249U 99025XJ  25338.40407041  .00044286  00000+0  96985-2 0  9996", "line2": "2 30249  98.9591 142.1911 0026366  68.7357 354.2027 14.57255430974424"}}, "geometry": {"type": "Point", "coordinates": [153.7675405213331, -48.89934513408247]}}, {"type": "Feature", "properties": {"norad_id": 30250, "name": "FENGYUN 1C DEB", "group": "fengyun-1c-debris", "lat": 46.94335179427632, "lon": -37.77007093960335, "alt_km": 931.8909957497617, "timestamp": "2025-12-05T11:32:56.293583+00:00", "meta": {"OBJECT_NAME": "FENGYUN 1C DEB", "OBJECT_ID": "1999-025XK", "EPOCH": "2025-12-04T13:38:05.224128", "MEAN_MOTION": 14.01609708, "ECCENTRICITY": 0.0068614, "INCLINATION": 98.753, "RA_OF_ASC_NODE": 330.8446, "ARG_OF_PERICENTER": 246.4665, "MEAN_ANOMALY": 236.3322, "EPHEMERIS_TYPE": 0, "CLASSIFICATION_TYPE": "U", "NORAD_CAT_ID": 30250, "ELEMENT_SET_NO": 999, "REV_AT_EPOCH": 96377, "BSTAR": 0.00071498, "MEAN_MOTION_DOT": 1.063e-05, "MEAN_MOTION_DDOT": 0}, "tle": {"line1": "1 30250U 99025XK  25338.56811602  .00001063  00000+0  71498-3 0  9996", "line2": "2 30250  98.7530 330.8446 0068614 246.4665 236.3322 14.01609708963779"}}, "geometry": {"type": "Point", "coordinates": [-37.77007093960335, 46.94335179427632]}}, {"type": "Feature", "properties": {"norad_id": 30251, "name": "FENGYUN 1C DEB", "group": "fengyun-1c-debris", "lat": 67.2760835665826, "lon": 19.891116907000786, "alt_km": 805.8641419994628, "timestamp": "2025-12-05T11:32:56.293596+00:00", "meta": {"OBJECT_NAME": "FENGYUN 1C DEB", "OBJECT_ID": "1999-025XL", "EPOCH": "2025-12-04T08:43:46.054272", "MEAN_MOTION": 14.29273718, "ECCENTRICITY": 0.0052073, "INCLINATION": 99.0496, "RA_OF_ASC_NODE": 176.3636, "ARG_OF_PERICENTER": 354.507, "MEAN_ANOMALY": 129.2268, "EPHEMERIS_TYPE": 0, "CLASSIFICATION_TYPE": "U", "NORAD_CAT_ID": 30251, "ELEMENT_SET_NO": 999, "REV_AT_EPOCH": 98022, "BSTAR": 0.0008684, "MEAN_MOTION_DOT": 2.194e-05, "MEAN_MOTION_DDOT": 0}, "tle": {"line1": "1 30251U 99025XL  25338.36372748  .00002194  00000+0  86840-3 0  9991", "line2": "2 30251  99.0496 176.3636 0052073 354.5070 129.2268 14.29273718980228"}}, "geometry": {"type": "Point", "coordinates": [19.891116907000786, 67.2760835665826]}}]}